STARLINK-4711           
1 53701U 22107B   26054.40816652 -.00000477  00000+0 -11871-4 0  9998
2 53701  53.2186 307.8250 0001430  91.1512 268.9644 15.08835163192703
STARLINK-4724           
1 53702U 22107C   26054.63222509  .00001077  00000+0  85734-4 0  9990
2 53702  53.2177 292.1307 0001338 100.7388 259.3755 15.08840574192976
STARLINK-4731           
1 53703U 22107D   26054.68786320 -.00000264  00000+0  15352-5 0  9990
2 53703  53.2182 306.7247 0002003  81.5577 278.5642 15.08839644192743
STARLINK-4714           
1 53704U 22107E   26054.73577192 -.00001139  00000+0 -53514-4 0  9996
2 53704  53.2182 307.0214 0001621  87.2845 272.8333 15.08831458192589
STARLINK-4717           
1 53705U 22107F   26054.40088886  .00003748  00000+0  25347-3 0  9996
2 53705  53.2178 308.4851 0001459  87.5889 272.5270 15.08834696192693
STARLINK-4716           
1 53706U 22107G   26054.71733867 -.00001909  00000+0 -10190-3 0  9996
2 53706  53.2175 306.9056 0001379  96.6309 263.4840 15.08838541192741
STARLINK-4667           
1 53707U 22107H   26054.37831113  .00000562  00000+0  53403-4 0  9999
2 53707  53.2176 293.3833 0001392  87.4949 272.6202 15.08841300192907
STARLINK-4694           
1 53708U 22107J   26054.36357912 -.00000325  00000+0 -23331-5 0  9996
2 53708  53.2176 293.3019 0001538  89.6467 270.4702 15.08834470192906
STARLINK-4685           
1 53709U 22107K   26054.41692019 -.00000434  00000+0 -91650-5 0  9993
2 53709  53.2183 312.8913 0001537  93.1837 266.9331 15.08832689192329
STARLINK-4627           
1 53711U 22107M   26054.69292977  .00001065  00000+0  84985-4 0  9996
2 53711  53.2177 311.7619 0001979  88.5989 271.5230 15.08841861192368
STARLINK-4683           
1 53712U 22107N   26054.73338552  .00001045  00000+0  83743-4 0  9991
2 53712  53.2191 311.3241 0001732 102.8721 257.2465 15.08844501192391
STARLINK-4686           
1 53715U 22107R   26054.42197616 -.00001132  00000+0 -53009-4 0  9995
2 53715  53.2197 317.8880 0002257  90.0772 270.0479 15.08833002192265
STARLINK-4699           
1 53716U 22107S   26054.41828306  .00001062  00000+0  84788-4 0  9990
2 53716  53.2181 317.8679 0001370  84.9240 275.1909 15.08845327192258
STARLINK-4695           
1 53718U 22107U   26054.73948404 -.00001044  00000+0 -47503-4 0  9995
2 53718  53.2174 317.0103 0001175  93.9709 266.1417 15.08835150192290
STARLINK-4644           
1 53719U 22107V   26054.34376334  .00000665  00000+0  59881-4 0  9998
2 53719  53.2173 288.1479 0001421  94.2917 265.8238 15.08839548192677
STARLINK-4642           
1 53720U 22107W   26054.69062278  .00000076  00000+0  22909-4 0  9994
2 53720  53.2189 316.7268 0001884  89.7564 270.3644 15.08836999192309
