[{"OBJECT_NAME":"STARLINK-4711","OBJECT_ID":"2022-107B","EPOCH":"2026-02-23T09:47:45.587328","MEAN_MOTION":15.08835163,"ECCENTRICITY":0.00014308,"INCLINATION":53.2186,"RA_OF_ASC_NODE":307.825,"ARG_OF_PERICENTER":91.1512,"MEAN_ANOMALY":268.9644,"EPHEMERIS_TYPE":0,"CLASSIFICATION_TYPE":"U","NORAD_CAT_ID":53701,"ELEMENT_SET_NO":999,"REV_AT_EPOCH":19270,"BSTAR":-1.1870943e-5,"MEAN_MOTION_DOT":-4.77e-6,"MEAN_MOTION_DDOT":0},{"OBJECT_NAME":"STARLINK-4724","OBJECT_ID":"2022-107C","EPOCH":"2026-02-23T15:10:24.247776","MEAN_MOTION":15.08840574,"ECCENTRICITY":0.0001338,"INCLINATION":53.2177,"RA_OF_ASC_NODE":292.1307,"ARG_OF_PERICENTER":100.7388,"MEAN_ANOMALY":259.3755,"EPHEMERIS_TYPE":0,"CLASSIFICATION_TYPE":"U","NORAD_CAT_ID":53702,"ELEMENT_SET_NO":999,"REV_AT_EPOCH":19297,"BSTAR":8.5734e-5,"MEAN_MOTION_DOT":1.077e-5,"MEAN_MOTION_DDOT":0},{"OBJECT_NAME":"STARLINK-4731","OBJECT_ID":"2022-107D","EPOCH":"2026-02-23T16:30:31.380480","MEAN_MOTION":15.08839644,"ECCENTRICITY":0.0002003,"INCLINATION":53.2182,"RA_OF_ASC_NODE":306.7247,"ARG_OF_PERICENTER":81.5577,"MEAN_ANOMALY":278.5642,"EPHEMERIS_TYPE":0,"CLASSIFICATION_TYPE":"U","NORAD_CAT_ID":53703,"ELEMENT_SET_NO":999,"REV_AT_EPOCH":19274,"BSTAR":1.5352e-6,"MEAN_MOTION_DOT":-2.64e-6,"MEAN_MOTION_DDOT":0},{"OBJECT_NAME":"STARLINK-4714","OBJECT_ID":"2022-107E","EPOCH":"2026-02-23T17:39:30.693888","MEAN_MOTION":15.08831458,"ECCENTRICITY":0.0001621,"INCLINATION":53.2182,"RA_OF_ASC_NODE":307.0214,"ARG_OF_PERICENTER":87.2845,"MEAN_ANOMALY":272.8333,"EPHEMERIS_TYPE":0,"CLASSIFICATION_TYPE":"U","NORAD_CAT_ID":53704,"ELEMENT_SET_NO":999,"REV_AT_EPOCH":19258,"BSTAR":-5.3514e-5,"MEAN_MOTION_DOT":-1.139e-5,"MEAN_MOTION_DDOT":0},{"OBJECT_NAME":"STARLINK-4717","OBJECT_ID":"2022-107F","EPOCH":"2026-02-23T09:37:16.797504","MEAN_MOTION":15.08834696,"ECCENTRICITY":0.00014594,"INCLINATION":53.2178,"RA_OF_ASC_NODE":308.4851,"ARG_OF_PERICENTER":87.5889,"MEAN_ANOMALY":272.527,"EPHEMERIS_TYPE":0,"CLASSIFICATION_TYPE":"U","NORAD_CAT_ID":53705,"ELEMENT_SET_NO":999,"REV_AT_EPOCH":19269,"BSTAR":0.0002534681,"MEAN_MOTION_DOT":3.748e-5,"MEAN_MOTION_DDOT":0},{"OBJECT_NAME":"STARLINK-4716","OBJECT_ID":"2022-107G","EPOCH":"2026-02-23T17:12:58.061088","MEAN_MOTION":15.08838541,"ECCENTRICITY":0.0001379,"INCLINATION":53.2175,"RA_OF_ASC_NODE":306.9056,"ARG_OF_PERICENTER":96.6309,"MEAN_ANOMALY":263.484,"EPHEMERIS_TYPE":0,"CLASSIFICATION_TYPE":"U","NORAD_CAT_ID":53706,"ELEMENT_SET_NO":999,"REV_AT_EPOCH":19274,"BSTAR":-0.0001019,"MEAN_MOTION_DOT":-1.909e-5,"MEAN_MOTION_DDOT":0},{"OBJECT_NAME":"STARLINK-4667","OBJECT_ID":"2022-107H","EPOCH":"2026-02-23T09:04:46.081632","MEAN_MOTION":15.088413,"ECCENTRICITY":0.00013925,"INCLINATION":53.2176,"RA_OF_ASC_NODE":293.3833,"ARG_OF_PERICENTER":87.4949,"MEAN_ANOMALY":272.6202,"EPHEMERIS_TYPE":0,"CLASSIFICATION_TYPE":"U","NORAD_CAT_ID":53707,"ELEMENT_SET_NO":999,"REV_AT_EPOCH":19290,"BSTAR":5.3402905e-5,"MEAN_MOTION_DOT":5.62e-6,"MEAN_MOTION_DDOT":0},{"OBJECT_NAME":"STARLINK-4694","OBJECT_ID":"2022-107J","EPOCH":"2026-02-23T08:43:33.235968","MEAN_MOTION":15.0883447,"ECCENTRICITY":0.00015383,"INCLINATION":53.2176,"RA_OF_ASC_NODE":293.3019,"ARG_OF_PERICENTER":89.6467,"MEAN_ANOMALY":270.4702,"EPHEMERIS_TYPE":0,"CLASSIFICATION_TYPE":"U","NORAD_CAT_ID":53708,"ELEMENT_SET_NO":999,"REV_AT_EPOCH":19290,"BSTAR":-2.333145e-6,"MEAN_MOTION_DOT":-3.25e-6,"MEAN_MOTION_DDOT":0},{"OBJECT_NAME":"STARLINK-4685","OBJECT_ID":"2022-107K","EPOCH":"2026-02-23T10:00:21.904416","MEAN_MOTION":15.08832689,"ECCENTRICITY":0.00015376,"INCLINATION":53.2183,"RA_OF_ASC_NODE":312.8913,"ARG_OF_PERICENTER":93.1837,"MEAN_ANOMALY":266.9331,"EPHEMERIS_TYPE":0,"CLASSIFICATION_TYPE":"U","NORAD_CAT_ID":53709,"ELEMENT_SET_NO":999,"REV_AT_EPOCH":19232,"BSTAR":-9.164972e-6,"MEAN_MOTION_DOT":-4.34e-6,"MEAN_MOTION_DDOT":0},{"OBJECT_NAME":"STARLINK-4627","OBJECT_ID":"2022-107M","EPOCH":"2026-02-23T16:37:49.132128","MEAN_MOTION":15.08841861,"ECCENTRICITY":0.0001979,"INCLINATION":53.2177,"RA_OF_ASC_NODE":311.7619,"ARG_OF_PERICENTER":88.5989,"MEAN_ANOMALY":271.523,"EPHEMERIS_TYPE":0,"CLASSIFICATION_TYPE":"U","NORAD_CAT_ID":53711,"ELEMENT_SET_NO":999,"REV_AT_EPOCH":19236,"BSTAR":8.4985e-5,"MEAN_MOTION_DOT":1.065e-5,"MEAN_MOTION_DDOT":0},{"OBJECT_NAME":"STARLINK-4683","OBJECT_ID":"2022-107N","EPOCH":"2026-02-23T17:36:04.508928","MEAN_MOTION":15.08844501,"ECCENTRICITY":0.0001732,"INCLINATION":53.2191,"RA_OF_ASC_NODE":311.3241,"ARG_OF_PERICENTER":102.8721,"MEAN_ANOMALY":257.2465,"EPHEMERIS_TYPE":0,"CLASSIFICATION_TYPE":"U","NORAD_CAT_ID":53712,"ELEMENT_SET_NO":999,"REV_AT_EPOCH":19239,"BSTAR":8.3743e-5,"MEAN_MOTION_DOT":1.045e-5,"MEAN_MOTION_DDOT":0},{"OBJECT_NAME":"STARLINK-4686","OBJECT_ID":"2022-107R","EPOCH":"2026-02-23T10:07:38.740224","MEAN_MOTION":15.08833002,"ECCENTRICITY":0.00022576,"INCLINATION":53.2197,"RA_OF_ASC_NODE":317.888,"ARG_OF_PERICENTER":90.0772,"MEAN_ANOMALY":270.0479,"EPHEMERIS_TYPE":0,"CLASSIFICATION_TYPE":"U","NORAD_CAT_ID":53715,"ELEMENT_SET_NO":999,"REV_AT_EPOCH":19226,"BSTAR":-5.3008776e-5,"MEAN_MOTION_DOT":-1.132e-5,"MEAN_MOTION_DDOT":0},{"OBJECT_NAME":"STARLINK-4699","OBJECT_ID":"2022-107S","EPOCH":"2026-02-23T10:02:19.656384","MEAN_MOTION":15.08845327,"ECCENTRICITY":0.00013709,"INCLINATION":53.2181,"RA_OF_ASC_NODE":317.8679,"ARG_OF_PERICENTER":84.924,"MEAN_ANOMALY":275.1909,"EPHEMERIS_TYPE":0,"CLASSIFICATION_TYPE":"U","NORAD_CAT_ID":53716,"ELEMENT_SET_NO":999,"REV_AT_EPOCH":19225,"BSTAR":8.4787728e-5,"MEAN_MOTION_DOT":1.062e-5,"MEAN_MOTION_DDOT":0},{"OBJECT_NAME":"STARLINK-4695","OBJECT_ID":"2022-107U","EPOCH":"2026-02-23T17:44:51.421056","MEAN_MOTION":15.0883515,"ECCENTRICITY":0.0001175,"INCLINATION":53.2174,"RA_OF_ASC_NODE":317.0103,"ARG_OF_PERICENTER":93.9709,"MEAN_ANOMALY":266.1417,"EPHEMERIS_TYPE":0,"CLASSIFICATION_TYPE":"U","NORAD_CAT_ID":53718,"ELEMENT_SET_NO":999,"REV_AT_EPOCH":19229,"BSTAR":-4.7503e-5,"MEAN_MOTION_DOT":-1.044e-5,"MEAN_MOTION_DDOT":0},{"OBJECT_NAME":"STARLINK-4644","OBJECT_ID":"2022-107V","EPOCH":"2026-02-23T08:15:01.152576","MEAN_MOTION":15.08839548,"ECCENTRICITY":0.00014219,"INCLINATION":53.2173,"RA_OF_ASC_NODE":288.1479,"ARG_OF_PERICENTER":94.2917,"MEAN_ANOMALY":265.8238,"EPHEMERIS_TYPE":0,"CLASSIFICATION_TYPE":"U","NORAD_CAT_ID":53719,"ELEMENT_SET_NO":999,"REV_AT_EPOCH":19267,"BSTAR":5.9880957e-5,"MEAN_MOTION_DOT":6.65e-6,"MEAN_MOTION_DDOT":0},{"OBJECT_NAME":"STARLINK-4642","OBJECT_ID":"2022-107W","EPOCH":"2026-02-23T16:34:29.808192","MEAN_MOTION":15.08836999,"ECCENTRICITY":0.0001884,"INCLINATION":53.2189,"RA_OF_ASC_NODE":316.7268,"ARG_OF_PERICENTER":89.7564,"MEAN_ANOMALY":270.3644,"EPHEMERIS_TYPE":0,"CLASSIFICATION_TYPE":"U","NORAD_CAT_ID":53720,"ELEMENT_SET_NO":999,"REV_AT_EPOCH":19230,"BSTAR":2.2909e-5,"MEAN_MOTION_DOT":7.6e-7,"MEAN_MOTION_DDOT":0}]
